{
  "norad_id": 66260,
  "name": "STARLINK-35420",
  "history": [
    {
      "epoch": "2026-03-28T16:12:28.387584Z",
      "apogee_km": 475.9226655674338,
      "perigee_km": 474.4903167777793,
      "latitude_deg": -4.6338773596937834e-05,
      "longitude_deg": 126.47001383192135,
      "height_km": 475.92520381795885,
      "semi_major_axis_km": 6853.343491172606,
      "eccentricity": 0.0001045,
      "inclination_deg": 53.1581,
      "raan_deg": 195.6807,
      "arg_perigee_deg": 75.4832,
      "mean_anomaly_deg": 284.6284,
      "mean_motion_rev_day": 15.30202873
    }
  ]
}